[{"OBJECT_NAME":"STARLINK-31255","OBJECT_ID":"2024-020T","EPOCH":"2026-03-09T23:23:51.669312","MEAN_MOTION":15.30184619,"ECCENTRICITY":0.00011119,"INCLINATION":53.1599,"RA_OF_ASC_NODE":321.1706,"ARG_OF_PERICENTER":109.4106,"MEAN_ANOMALY":250.7015,"EPHEMERIS_TYPE":0,"CLASSIFICATION_TYPE":"U","NORAD_CAT_ID":58893,"ELEMENT_SET_NO":999,"REV_AT_EPOCH":11811,"BSTAR":0.00040111818,"MEAN_MOTION_DOT":0.00011534,"MEAN_MOTION_DDOT":0},{"OBJECT_NAME":"FENGYUN 1C DEB","OBJECT_ID":"1999-025FBF","EPOCH":"2026-03-06T07:33:49.292640","MEAN_MOTION":15.04395515,"ECCENTRICITY":0.01189701,"INCLINATION":98.9505,"RA_OF_ASC_NODE":84.7158,"ARG_OF_PERICENTER":75.0888,"MEAN_ANOMALY":286.3472,"EPHEMERIS_TYPE":0,"CLASSIFICATION_TYPE":"U","NORAD_CAT_ID":47029,"ELEMENT_SET_NO":999,"REV_AT_EPOCH":4330,"BSTAR":0.0027080259,"MEAN_MOTION_DOT":0.00044409,"MEAN_MOTION_DDOT":0}]
